SKYSAT-C1               
1 41601U 16040C   26201.03817989  .00004910  00000+0  13865-3 0  9998
2 41601  96.9553 230.9857 0000592 200.8282 159.2940 15.36795530562910
LAPAN-A3                
1 41603U 16040E   26201.28053927  .00001809  00000+0  58506-4 0  9997
2 41603  97.1508 196.3462 0008320 253.6624 106.3704 15.33296666559881
GAOFEN-3                
1 41727U 16049A   26201.31600537  .00000044  00000+0  26526-4 0  9999
2 41727  98.4022 208.6029 0001787  82.8543 277.2850 14.42219049523421
SKYSAT-C4               
1 41771U 16058B   26201.01802839  .00010322  00000+0  18875-3 0  9991
2 41771  96.9171 221.4354 0003555 111.3811 248.7822 15.49535299550555
SKYSAT-C5               
1 41772U 16058C   26201.10448900  .00003899  00000+0  12170-3 0  9990
2 41772  97.0452 240.2632 0003067 148.6501 211.4926 15.33757415548799
SKYSAT-C2               
1 41773U 16058D   26201.02132536  .00007045  00000+0  16310-3 0  9994
2 41773  97.0163 221.8941 0000811 320.8207  39.2982 15.42746945550111
SKYSAT-C3               
1 41774U 16058E   26201.06439642  .00014503  00000+0  22691-3 0  9993
2 41774  96.8998 230.6733 0002719 127.1966 232.9537 15.53846132551212
ALSAT-1B                
1 41785U 16059C   26201.27012171  .00000286  00000+0  52639-4 0  9992
2 41785  97.7759 208.6070 0010628 115.6226 244.6082 14.72297056525443
PATHFINDER 1            
1 41787U 16059E   26200.99737225  .00000278  00000+0  56635-4 0  9997
2 41787  97.8179 198.7949 0029946 101.1531 259.3044 14.67696330524529
SCATSAT 1               
1 41790U 16059H   26201.14852277  .00000698  00000+0  98240-4 0  9998
2 41790  98.1173 265.2524 0055545 140.8715 219.6533 14.79594675106461
GOKTURK 1A              
1 41875U 16073A   26201.28461213  .00000310  00000+0  69921-4 0  9994
2 41875  98.1201  95.4336 0001450  80.1072 280.0293 14.62795794513665
RESOURCESAT-2A          
1 41877U 16074A   26201.29129957 -.00000340  00000+0 -13490-3 0  9998
2 41877  98.7512 274.5231 0002073  16.7571 343.3674 14.21608412499005
CARTOSAT-2D             
1 41948U 17008A   26201.28777697  .00002179  00000+0  10639-3 0  9996
2 41948  97.4086 259.9722 0006398 125.1995 234.9839 15.19306667522603
SENTINEL-2B             
1 42063U 17013A   26201.28443814 -.00000229  00000+0 -70687-4 0  9998
2 42063  98.5677 275.5901 0001221  95.0756 265.0567 14.30815310489374
CARTOSAT-2E             
1 42767U 17036C   26201.30564363  .00002259  00000+0  11032-3 0  9991
2 42767  97.4250 260.5589 0003873 171.7292 188.4008 15.19275638503172
FORMOSAT-5              
1 42920U 17049A   26201.22410876  .00000036  00000+0  20264-4 0  9995
2 42920  98.2242 275.7982 0010980 348.1491  11.9444 14.50908657471464
SENTINEL-5P             
1 42969U 17064A   26201.25975428  .00000007  00000+0  24155-4 0  9998
2 42969  98.7929 143.1572 0001199  93.2254 266.9060 14.19523773454255
SKYSAT-C11              
1 42987U 17068A   26200.99027970  .00017500  00000+0  22210-3 0  9997
2 42987  97.4390 351.2973 0001454 153.1911 206.9421 15.59495163488359
SKYSAT-C10              
1 42988U 17068B   26201.27955941  .00005999  00000+0  17811-3 0  9998
2 42988  97.4544 338.4695 0001554 110.9574 249.1836 15.35176950487437
SKYSAT-C9               
1 42989U 17068C   26200.88116339  .00007038  00000+0  16549-3 0  9998
2 42989  97.4468 339.3191 0008234  29.4444 330.7266 15.42281891487798
SKYSAT-C8               
1 42990U 17068D   26200.93968811  .00005765  00000+0  15880-3 0  9998
2 42990  97.4562 338.0520 0001292 106.4658 253.6729 15.37546198487343
SKYSAT-C7               
1 42991U 17068E   26201.19465394  .00005648  00000+0  15582-3 0  9995
2 42991  97.4573 339.3027 0005236   3.9934 356.1352 15.37498493487448
SKYSAT-C6               
1 42992U 17068F   26201.14996308  .00005084  00000+0  15590-3 0  9998
2 42992  97.4611 339.0883 0004970  76.2150 283.9645 15.34219330487378
CARTOSAT-2F             
1 43111U 18004A   26201.27258100  .00001426  00000+0  71018-4 0  9992
2 43111  97.4765 260.5807 0002774 126.1656 233.9836 15.19193819472357
GAOFEN-1 02             
1 43259U 18031A   26201.30285792  .00000036  00000+0  12514-4 0  9998
2 43259  98.0504 263.7344 0001521 252.0725 108.0319 14.76475071447584
GAOFEN-1 03             
1 43260U 18031B   26201.28098804  .00000328  00000+0  54606-4 0  9995
2 43260  98.0500 263.5671 0001997 359.8971   0.2238 14.76466462447575
GAOFEN-1 04             
1 43262U 18031D   26201.32450681 -.00000177  00000+0 -18091-4 0  9999
2 43262  98.0506 263.8056 0000917  52.2486 307.8807 14.76439856447574
SENTINEL-3B             
1 43437U 18039A   26201.15073905  .00000041  00000+0  34871-4 0  9994
2 43437  98.6232 268.2072 0001251 118.9743 241.1563 14.26737265428821
GAOFEN-5 01             
1 43461U 18043A   26200.94394249  .00000148  00000+0  40451-4 0  9998
2 43461  98.4594 173.2227 0001810  21.7754 338.3522 14.60625194436477
GAOFEN-6                
1 43484U 18048A   26201.27950957  .00000396  00000+0  64466-4 0  9996
2 43484  98.0948 263.9933 0012004  67.4893 292.7586 14.76387385438277
